$$SOE
2459580.500000000, A.D. 2022-Jan-01 00:00:00.0000, 2.513947218760488E+08, -3.246703066613834E+08, -3.136605993209237E+07,
2459587.500000000, A.D. 2022-Jan-08 00:00:00.0000, 2.595214498931777E+08, -3.185216008597511E+08, -3.249420161786743E+07,
2459594.500000000, A.D. 2022-Jan-15 00:00:00.0000, 2.674683947353231E+08, -3.121519988610358E+08, -3.359980167068529E+07,
2459601.500000000, A.D. 2022-Jan-22 00:00:00.0000, 2.752304536676101E+08, -3.055663823733637E+08, -3.468214302086902E+07,
2459608.500000000, A.D. 2022-Jan-29 00:00:00.0000, 2.828026316737221E+08, -2.987697116368428E+08, -3.574052223080361E+07,
2459615.500000000, A.D. 2022-Feb-05 00:00:00.0000, 2.901800383988039E+08, -2.917670252032136E+08, -3.677424924159746E+07,
2459622.500000000, A.D. 2022-Feb-12 00:00:00.0000, 2.973578873487349E+08, -2.845634409176314E+08, -3.778264741540167E+07,
2459629.500000000, A.D. 2022-Feb-19 00:00:00.0000, 3.043314960268421E+08, -2.771641557271843E+08, -3.876505355913047E+07,
2459636.500000000, A.D. 2022-Feb-26 00:00:00.0000, 3.110962857020000E+08, -2.695744450336041E+08, -3.972081786931452E+07,
2459643.500000000, A.D. 2022-Mar-05 00:00:00.0000, 3.176477809720504E+08, -2.617996622012163E+08, -4.064930386406533E+07,
2459650.500000000, A.D. 2022-Mar-12 00:00:00.0000, 3.239816093488687E+08, -2.538452382797722E+08, -4.154988832883713E+07,
2459657.500000000, A.D. 2022-Mar-19 00:00:00.0000, 3.300935009405783E+08, -2.457166819081114E+08, -4.242196128119643E+07,
2459664.500000000, A.D. 2022-Mar-26 00:00:00.0000, 3.359792882573795E+08, -2.374195793986590E+08, -4.326492595809639E+07,
2459671.500000000, A.D. 2022-Apr-02 00:00:00.0000, 3.416349062120706E+08, -2.289595950522137E+08, -4.407819883729042E+07,
2459678.500000000, A.D. 2022-Apr-09 00:00:00.0000, 3.470563925904810E+08, -2.203424716906002E+08, -4.486120971814731E+07,
2459685.500000000, A.D. 2022-Apr-16 00:00:00.0000, 3.522398893540560E+08, -2.115740307453271E+08, -4.561340184193073E+07,
2459692.500000000, A.D. 2022-Apr-23 00:00:00.0000, 3.571816435126966E+08, -2.026601708126122E+08, -4.633423184758006E+07,
2459699.500000000, A.D. 2022-Apr-30 00:00:00.0000, 3.618780057026790E+08, -1.936068669160212E+08, -4.702316957595409E+07,
2459706.500000000, A.D. 2022-May-07 00:00:00.0000, 3.663254295346906E+08, -1.844201724437420E+08, -4.767969816537592E+07,
2459713.500000000, A.D. 2022-May-14 00:00:00.0000, 3.705204731051227E+08, -1.751062207146293E+08, -4.830331431823578E+07,
2459720.500000000, A.D. 2022-May-21 00:00:00.0000, 3.744598006446659E+08, -1.656712254083356E+08, -4.889352849110026E+07,
2459727.500000000, A.D. 2022-May-28 00:00:00.0000, 3.781401838291819E+08, -1.561214808130362E+08, -4.944986504334571E+07,
2459734.500000000, A.D. 2022-Jun-04 00:00:00.0000, 3.815585030318204E+08, -1.464633621973076E+08, -4.997186239547984E+07,
2459741.500000000, A.D. 2022-Jun-11 00:00:00.0000, 3.847117486620911E+08, -1.367033262957250E+08, -5.045907321007697E+07,
2459748.500000000, A.D. 2022-Jun-18 00:00:00.0000, 3.875970226328304E+08, -1.268479118847120E+08, -5.091106459763821E+07,
2459755.500000000, A.D. 2022-Jun-25 00:00:00.0000, 3.902115399894578E+08, -1.169037404713361E+08, -5.132741835309860E+07,
2459762.500000000, A.D. 2022-Jul-02 00:00:00.0000, 3.925526308421755E+08, -1.068775171518092E+08, -5.170773124144773E+07,
2459769.500000000, A.D. 2022-Jul-09 00:00:00.0000, 3.946177429972275E+08, -9.677603145464772E+07, -5.205161535458188E+07,
2459776.500000000, A.D. 2022-Jul-16 00:00:00.0000, 3.964044452380610E+08, -8.660615707691313E+07, -5.235869844643724E+07,
2459783.500000000, A.D. 2022-Jul-23 00:00:00.0000, 3.979104290661283E+08, -7.637485042842694E+07, -5.262862403927745E+07,
2459790.500000000, A.D. 2022-Jul-30 00:00:00.0000, 3.991335089906861E+08, -6.608915133213096E+07, -5.286105158361124E+07,
2459797.500000000, A.D. 2022-Aug-06 00:00:00.0000, 4.000716249671624E+08, -5.575618522351395E+07, -5.305565694872920E+07,
2459804.500000000, A.D. 2022-Aug-13 00:00:00.0000, 4.007228461632401E+08, -4.538316408309598E+07, -5.321213294308624E+07,
2459811.500000000, A.D. 2022-Aug-20 00:00:00.0000, 4.010853744878886E+08, -3.497738659419742E+07, -5.333018976194531E+07,
2459818.500000000, A.D. 2022-Aug-27 00:00:00.0000, 4.011575479560754E+08, -2.454623824172310E+07, -5.340955542825701E+07,
2459825.500000000, A.D. 2022-Sep-03 00:00:00.0000, 4.009378441411775E+08, -1.409719145145214E+07, -5.344997625889716E+07,
2459832.500000000, A.D. 2022-Sep-10 00:00:00.0000, 4.004248838088105E+08, -3.637805734517762E+06, -5.345121736287148E+07,
2459839.500000000, A.D. 2022-Sep-17 00:00:00.0000, 3.996174347646036E+08, 6.824272173013590E+06, -5.341306317456359E+07,
2459846.500000000, A.D. 2022-Sep-24 00:00:00.0000, 3.985144159788864E+08, 1.728130813683774E+07, -5.333531803189076E+07,
2459853.500000000, A.D. 2022-Oct-01 00:00:00.0000, 3.971149022294828E+08, 2.772548040763266E+07, -5.321780682324995E+07,
2459860.500000000, A.D. 2022-Oct-08 00:00:00.0000, 3.954181296682852E+08, 3.814887989685457E+07, -5.306037569759843E+07,
2459867.500000000, A.D. 2022-Oct-15 00:00:00.0000, 3.934235013781059E+08, 4.854351216255972E+07, -5.286289265380573E+07,
2459874.500000000, A.D. 2022-Oct-22 00:00:00.0000, 3.911305907427117E+08, 5.890129944085722E+07, -5.262524794777544E+07,
2459881.500000000, A.D. 2022-Oct-29 00:00:00.0000, 3.885391451320418E+08, 6.921408014528890E+07, -5.234735475999869E+07,
2459888.500000000, A.D. 2022-Nov-05 00:00:00.0000, 3.856490920003717E+08, 7.947360859201440E+07, -5.202915009277555E+07,
2459895.500000000, A.D. 2022-Nov-12 00:00:00.0000, 3.824605454312392E+08, 8.967155623734307E+07, -5.167059561384664E+07,
2459902.500000000, A.D. 2022-Nov-19 00:00:00.0000, 3.789738124091374E+08, 9.979951349304689E+07, -5.127167845902475E+07,
2459909.500000000, A.D. 2022-Nov-26 00:00:00.0000, 3.751893990781050E+08, 1.098489917419565E+08, -5.083241205063688E+07,
2459916.500000000, A.D. 2022-Dec-03 00:00:00.0000, 3.711080171493034E+08, 1.198114255631251E+08, -5.035283694784486E+07,
2459923.500000000, A.D. 2022-Dec-10 00:00:00.0000, 3.667305904975532E+08, 1.296781752073496E+08, -4.983302173107282E+07,
2459930.500000000, A.D. 2022-Dec-17 00:00:00.0000, 3.620582619647030E+08, 1.394405293215447E+08, -4.927306392421719E+07,
2459937.500000000, A.D. 2022-Dec-24 00:00:00.0000, 3.570924004714534E+08, 1.490897078808650E+08, -4.867309096932825E+07,
2459944.500000000, A.D. 2022-Dec-31 00:00:00.0000, 3.518346087864013E+08, 1.586168654609949E+08, -4.803326127698863E+07,
2459951.500000000, A.D. 2023-Jan-07 00:00:00.0000, 3.462867320619792E+08, 1.680130958371834E+08, -4.735376528351089E+07,
2459958.500000000, A.D. 2023-Jan-14 00:00:00.0000, 3.404508651529026E+08, 1.772694384349400E+08, -4.663482629153340E+07,
2459965.500000000, A.D. 2023-Jan-21 00:00:00.0000, 3.343293580602183E+08, 1.863768834924756E+08, -4.587670129292555E+07,
2459972.500000000, A.D. 2023-Jan-28 00:00:00.0000, 3.279248231569315E+08, 1.953263757672472E+08, -4.507968212557414E+07,
2459979.500000000, A.D. 2023-Feb-04 00:00:00.0000, 3.212401439661429E+08, 2.041088198404370E+08, -4.424409669497413E+07,
2459986.500000000, A.D. 2023-Feb-11 00:00:00.0000, 3.142784836733172E+08, 2.127150868537026E+08, -4.337031010864417E+07,
2459993.500000000, A.D. 2023-Feb-18 00:00:00.0000, 3.070432932840312E+08, 2.211360218819733E+08, -4.245872578125452E+07,
2460000.500000000, A.D. 2023-Feb-25 00:00:00.0000, 2.995383196592709E+08, 2.293624518064392E+08, -4.150978654324669E+07,
2460007.500000000, A.D. 2023-Mar-04 00:00:00.0000, 2.917676134942403E+08, 2.373851937339980E+08, -4.052397575549217E+07,
2460014.500000000, A.D. 2023-Mar-11 00:00:00.0000, 2.837355372303382E+08, 2.451950639945143E+08, -3.950181842728631E+07,
2460021.500000000, A.D. 2023-Mar-18 00:00:00.0000, 2.754467729087147E+08, 2.527828876995603E+08, -3.844388234126485E+07,
2460028.500000000, A.D. 2023-Mar-25 00:00:00.0000, 2.669063301307897E+08, 2.601395088476455E+08, -3.735077920326757E+07,
2460035.500000000, A.D. 2023-Apr-01 00:00:00.0000, 2.581195545110482E+08, 2.672558013972476E+08, -3.622316581915665E+07,
2460042.500000000, A.D. 2023-Apr-08 00:00:00.0000, 2.490921359608462E+08, 2.741226825525727E+08, -3.506174513580030E+07,
2460049.500000000, A.D. 2023-Apr-15 00:00:00.0000, 2.398301144082901E+08, 2.807311271732336E+08, -3.386726701374198E+07,
2460056.500000000, A.D. 2023-Apr-22 00:00:00.0000, 2.303398847052186E+08, 2.870721802796156E+08, -3.264052913908337E+07,
2460063.500000000, A.D. 2023-Apr-29 00:00:00.0000, 2.206282033993031E+08, 2.931369699235353E+08, -3.138237813406393E+07,
2460070.500000000, A.D. 2023-May-06 00:00:00.0000, 2.107021955436692E+08, 2.989167222137985E+08, -3.009371055010726E+07,
2460077.500000000, A.D. 2023-May-13 00:00:00.0000, 2.005693604946249E+08, 3.044027776104609E+08, -2.877547371693891E+07,
2460084.500000000, A.D. 2023-May-20 00:00:00.0000, 1.902375768568268E+08, 3.095866080007244E+08, -2.742866649950683E+07,
2460091.500000000, A.D. 2023-May-27 00:00:00.0000, 1.797151066913699E+08, 3.144598345255816E+08, -2.605433997261745E+07,
2460098.500000000, A.D. 2023-Jun-03 00:00:00.0000, 1.690105989628488E+08, 3.190142461755452E+08, -2.465359800572623E+07,
2460105.500000000, A.D. 2023-Jun-10 00:00:00.0000, 1.581330921642662E+08, 3.232418191273437E+08, -2.322759774998459E+07,
2460112.500000000, A.D. 2023-Jun-17 00:00:00.0000, 1.470920161208515E+08, 3.271347367399911E+08, -2.177755002895586E+07,
2460119.500000000, A.D. 2023-Jun-24 00:00:00.0000, 1.358971932023967E+08, 3.306854102373740E+08, -2.030471964582053E+07,
2460126.500000000, A.D. 2023-Jul-01 00:00:00.0000, 1.245588391066448E+08, 3.338865008698863E+08, -1.881042555067788E+07,
2460133.500000000, A.D. 2023-Jul-08 00:00:00.0000, 1.130875614498784E+08, 3.367309443281323E+08, -1.729604063498802E+07,
2460140.500000000, A.D. 2023-Jul-15 00:00:00.0000, 1.014943547907591E+08, 3.392119745147046E+08, -1.576299125334229E+07,
2460147.500000000, A.D. 2023-Jul-22 00:00:00.0000, 8.979059551124528E+07, 3.413231455776304E+08, -1.421275686700992E+07,
$$EOE